[{"OBJECT_NAME":"STARLINK-31241","OBJECT_ID":"2024-038Y","EPOCH":"2026-03-09T06:50:17.272032","MEAN_MOTION":15.27585159,"ECCENTRICITY":0.00016136,"INCLINATION":43.003,"RA_OF_ASC_NODE":26.0795,"ARG_OF_PERICENTER":256.1109,"MEAN_ANOMALY":103.9563,"EPHEMERIS_TYPE":0,"CLASSIFICATION_TYPE":"U","NORAD_CAT_ID":59045,"ELEMENT_SET_NO":999,"REV_AT_EPOCH":11479,"BSTAR":4.3845794e-5,"MEAN_MOTION_DOT":9.45e-6,"MEAN_MOTION_DDOT":0},{"OBJECT_NAME":"VSP ROSE","OBJECT_ID":"2024-043AC","EPOCH":"2026-03-09T21:48:06.922944","MEAN_MOTION":15.27746075,"ECCENTRICITY":0.00099339,"INCLINATION":97.5443,"RA_OF_ASC_NODE":203.927,"ARG_OF_PERICENTER":232.2702,"MEAN_ANOMALY":127.7637,"EPHEMERIS_TYPE":0,"CLASSIFICATION_TYPE":"U","NORAD_CAT_ID":59124,"ELEMENT_SET_NO":999,"REV_AT_EPOCH":11182,"BSTAR":0.00025731354,"MEAN_MOTION_DOT":6.907e-5,"MEAN_MOTION_DDOT":0}]
